{
  "type": "FeatureCollection",
  "features": [
    {
      "type": "Feature",
      "properties": {
        "norad_id": 34121,
        "name": "COSMOS 2251 DEB",
        "group": "cosmos-2251-debris",
        "lat": 59.62764579279413,
        "lon": -100.24515763437576,
        "alt_km": 1079.974876446092,
        "timestamp": "2025-12-05T18:53:13.675488+00:00",
        "meta_object_name": "COSMOS 2251 DEB",
        "meta_object_id": "1993-036KS",
        "meta_epoch": "2025-12-05T01:39:39.254112",
        "meta_mean_motion": 13.9188927,
        "meta_eccentricity": 0.02398096,
        "meta_inclination": 73.9923,
        "meta_ra_of_asc_node": 110.3142,
        "meta_arg_of_pericenter": 317.4092,
        "meta_mean_anomaly": 162.577,
        "meta_ephemeris_type": 0,
        "meta_classification_type": "U",
        "meta_norad_cat_id": 34121,
        "meta_element_set_no": 999,
        "meta_rev_at_epoch": 85018,
        "meta_bstar": 0.0020136188,
        "meta_mean_motion_dot": 3.22e-05,
        "meta_mean_motion_ddot": 0,
        "tle_line1": "1 34121U 93036KS  25339.06920433  .00003220  00000+0  20136-2 0  9991",
        "tle_line2": "2 34121  73.9923 110.3142 0239809 317.4092 162.5770 13.91889270850183"
      },
      "geometry": {
        "type": "Point",
        "coordinates": [
          -100.24515763437576,
          59.62764579279413
        ]
      }
    },
    {
      "type": "Feature",
      "properties": {
        "norad_id": 34122,
        "name": "COSMOS 2251 DEB",
        "group": "cosmos-2251-debris",
        "lat": -21.7673107015386,
        "lon": 125.44486892749681,
        "alt_km": 646.7712211634298,
        "timestamp": "2025-12-05T18:53:13.675498+00:00",
        "meta_object_name": "COSMOS 2251 DEB",
        "meta_object_id": "1993-036KT",
        "meta_epoch": "2025-12-05T03:08:36.177792",
        "meta_mean_motion": 14.64898305,
        "meta_eccentricity": 0.00839076,
        "meta_inclination": 74.0352,
        "meta_ra_of_asc_node": 133.27,
        "meta_arg_of_pericenter": 32.3126,
        "meta_mean_anomaly": 87.8389,
        "meta_ephemeris_type": 0,
        "meta_classification_type": "U",
        "meta_norad_cat_id": 34122,
        "meta_element_set_no": 999,
        "meta_rev_at_epoch": 88573,
        "meta_bstar": 0.0023989788,
        "meta_mean_motion_dot": 0.00013502,
        "meta_mean_motion_ddot": 0,
        "tle_line1": "1 34122U 93036KT  25339.13097428  .00013502  00000+0  23990-2 0  9994",
        "tle_line2": "2 34122  74.0352 133.2700 0083907  32.3126  87.8389 14.64898305885737"
      },
      "geometry": {
        "type": "Point",
        "coordinates": [
          125.44486892749681,
          -21.7673107015386
        ]
      }
    },
    {
      "type": "Feature",
      "properties": {
        "norad_id": 34127,
        "name": "COSMOS 2251 DEB",
        "group": "cosmos-2251-debris",
        "lat": 7.497841193034637,
        "lon": 58.56822547274223,
        "alt_km": 815.6390240718456,
        "timestamp": "2025-12-05T18:53:13.675508+00:00",
        "meta_object_name": "COSMOS 2251 DEB",
        "meta_object_id": "1993-036KY",
        "meta_epoch": "2025-12-05T05:34:37.015104",
        "meta_mean_motion": 14.31421697,
        "meta_eccentricity": 0.0114722,
        "meta_inclination": 74.1803,
        "meta_ra_of_asc_node": 57.4312,
        "meta_arg_of_pericenter": 259.1878,
        "meta_mean_anomaly": 130.7522,
        "meta_ephemeris_type": 0,
        "meta_classification_type": "U",
        "meta_norad_cat_id": 34127,
        "meta_element_set_no": 999,
        "meta_rev_at_epoch": 86664,
        "meta_bstar": 0.0037418568,
        "meta_mean_motion_dot": 0.00010661,
        "meta_mean_motion_ddot": 0,
        "tle_line1": "1 34127U 93036KY  25339.23237286  .00010661  00000+0  37419-2 0  9992",
        "tle_line2": "2 34127  74.1803  57.4312 0114722 259.1878 130.7522 14.31421697866649"
      },
      "geometry": {
        "type": "Point",
        "coordinates": [
          58.56822547274223,
          7.497841193034637
        ]
      }
    },
    {
      "type": "Feature",
      "properties": {
        "norad_id": 34128,
        "name": "COSMOS 2251 DEB",
        "group": "cosmos-2251-debris",
        "lat": -72.70856872145698,
        "lon": -116.28509896501812,
        "alt_km": 587.0945381763249,
        "timestamp": "2025-12-05T18:53:13.675518+00:00",
        "meta_object_name": "COSMOS 2251 DEB",
        "meta_object_id": "1993-036KZ",
        "meta_epoch": "2025-12-05T00:19:25.493664",
        "meta_mean_motion": 15.00574983,
        "meta_eccentricity": 0.0026306,
        "meta_inclination": 73.9991,
        "meta_ra_of_asc_node": 312.4826,
        "meta_arg_of_pericenter": 65.2266,
        "meta_mean_anomaly": 354.8785,
        "meta_ephemeris_type": 0,
        "meta_classification_type": "U",
        "meta_norad_cat_id": 34128,
        "meta_element_set_no": 999,
        "meta_rev_at_epoch": 89051,
        "meta_bstar": 0.0038774954,
        "meta_mean_motion_dot": 0.00049628,
        "meta_mean_motion_ddot": 0,
        "tle_line1": "1 34128U 93036KZ  25339.01348951  .00049628  00000+0  38775-2 0  9992",
        "tle_line2": "2 34128  73.9991 312.4826 0026306  65.2266 354.8785 15.00574983890513"
      },
      "geometry": {
        "type": "Point",
        "coordinates": [
          -116.28509896501812,
          -72.70856872145698
        ]
      }
    },
    {
      "type": "Feature",
      "properties": {
        "norad_id": 34129,
        "name": "COSMOS 2251 DEB",
        "group": "cosmos-2251-debris",
        "lat": 67.64091304463341,
        "lon": 129.02526556657727,
        "alt_km": 616.3221618020016,
        "timestamp": "2025-12-05T18:53:13.675528+00:00",
        "meta_object_name": "COSMOS 2251 DEB",
        "meta_object_id": "1993-036LA",
        "meta_epoch": "2025-12-05T07:01:17.296320",
        "meta_mean_motion": 14.75541539,
        "meta_eccentricity": 0.00326919,
        "meta_inclination": 74.0348,
        "meta_ra_of_asc_node": 354.0971,
        "meta_arg_of_pericenter": 78.0833,
        "meta_mean_anomaly": 282.4003,
        "meta_ephemeris_type": 0,
        "meta_classification_type": "U",
        "meta_norad_cat_id": 34129,
        "meta_element_set_no": 999,
        "meta_rev_at_epoch": 61188,
        "meta_bstar": 0.0021835701,
        "meta_mean_motion_dot": 0.00015007,
        "meta_mean_motion_ddot": 0,
        "tle_line1": "1 34129U 93036LA  25339.29256130  .00015007  00000+0  21836-2 0  9994",
        "tle_line2": "2 34129  74.0348 354.0971 0032691  78.0833 282.4003 14.75541539611883"
      },
      "geometry": {
        "type": "Point",
        "coordinates": [
          129.02526556657727,
          67.64091304463341
        ]
      }
    },
    {
      "type": "Feature",
      "properties": {
        "norad_id": 34136,
        "name": "COSMOS 2251 DEB",
        "group": "cosmos-2251-debris",
        "lat": 29.02732796895416,
        "lon": -132.80417307818388,
        "alt_km": 575.875191831693,
        "timestamp": "2025-12-05T18:53:13.675538+00:00",
        "meta_object_name": "COSMOS 2251 DEB",
        "meta_object_id": "1993-036LH",
        "meta_epoch": "2025-12-05T07:10:46.706016",
        "meta_mean_motion": 14.79989774,
        "meta_eccentricity": 0.00864221,
        "meta_inclination": 74.022,
        "meta_ra_of_asc_node": 57.3061,
        "meta_arg_of_pericenter": 182.233,
        "meta_mean_anomaly": 249.9056,
        "meta_ephemeris_type": 0,
        "meta_classification_type": "U",
        "meta_norad_cat_id": 34136,
        "meta_element_set_no": 999,
        "meta_rev_at_epoch": 89900,
        "meta_bstar": 0.0010734722,
        "meta_mean_motion_dot": 8.627e-05,
        "meta_mean_motion_ddot": 0,
        "tle_line1": "1 34136U 93036LH  25339.29915169  .00008627  00000+0  10735-2 0  9992",
        "tle_line2": "2 34136  74.0220  57.3061 0086422 182.2330 249.9056 14.79989774899003"
      },
      "geometry": {
        "type": "Point",
        "coordinates": [
          -132.80417307818388,
          29.02732796895416
        ]
      }
    },
    {
      "type": "Feature",
      "properties": {
        "norad_id": 34139,
        "name": "COSMOS 2251 DEB",
        "group": "cosmos-2251-debris",
        "lat": 36.35827497664881,
        "lon": -80.51938589500527,
        "alt_km": 678.1040080730982,
        "timestamp": "2025-12-05T18:53:13.675548+00:00",
        "meta_object_name": "COSMOS 2251 DEB",
        "meta_object_id": "1993-036LL",
        "meta_epoch": "2025-12-05T06:14:09.504672",
        "meta_mean_motion": 14.58895354,
        "meta_eccentricity": 0.00426026,
        "meta_inclination": 74.0318,
        "meta_ra_of_asc_node": 268.3164,
        "meta_arg_of_pericenter": 340.4785,
        "meta_mean_anomaly": 169.8776,
        "meta_ephemeris_type": 0,
        "meta_classification_type": "U",
        "meta_norad_cat_id": 34139,
        "meta_element_set_no": 999,
        "meta_rev_at_epoch": 88040,
        "meta_bstar": 0.003110901,
        "meta_mean_motion_dot": 0.0001476,
        "meta_mean_motion_ddot": 0,
        "tle_line1": "1 34139U 93036LL  25339.25983223  .00014760  00000+0  31109-2 0  9990",
        "tle_line2": "2 34139  74.0318 268.3164 0042602 340.4785 169.8776 14.58895354880406"
      },
      "geometry": {
        "type": "Point",
        "coordinates": [
          -80.51938589500527,
          36.35827497664881
        ]
      }
    }
  ]
}